H1 CPF  1  HTS 2022  3 25 12  5841 larets           NONE
H2  0304206 5557    27944 2022 03 25  0  0  0 2022 03 30  0  0  0   180 1 1  0 0 0
H5  0.0560 
H9 
10 0 59665  46440.00000  0    1368545.637    1452621.884    6762352.961
10 0 59665  46620.00000  0    2623855.838    1737723.790    6308671.341
10 0 59665  46800.00000  0    3789815.533    1927736.831    5623504.292
10 0 59665  46980.00000  0    4821248.838    2018600.598    4731764.983
10 0 59665  47160.00000  0    5677763.790    2010987.394    3666031.613
10 0 59665  47340.00000  0    6325408.034    1910153.617    2465383.952
10 0 59665  47520.00000  0    6738089.645    1725576.869    1173964.245
10 0 59665  47700.00000  0    6898695.257    1470395.493    -160682.044
10 0 59665  47880.00000  0    6799835.188    1160678.274   -1489420.682
10 0 59665  48060.00000  0    6444171.655     814560.722   -2763409.970
10 0 59665  48240.00000  0    5844317.323     451294.974   -3935957.399
10 0 59665  48420.00000  0    5022312.087      90271.301   -4964268.329
10 0 59665  48600.00000  0    4008715.679    -249938.129   -5811004.611
10 0 59665  48780.00000  0    2841382.195    -552463.481   -6445597.650
10 0 59665  48960.00000  0    1563979.276    -802911.591   -6845286.167
10 0 59665  49140.00000  0     224322.254    -989999.943   -6995854.172
10 0 59665  49320.00000  0   -1127412.702   -1106029.077   -6892071.123
10 0 59665  49500.00000  0   -2440539.221   -1147179.563   -6537833.805
10 0 59665  49680.00000  0   -3665721.830   -1113628.057   -5946013.755
10 0 59665  49860.00000  0   -4756793.090   -1009480.864   -5138019.649
10 0 59665  50040.00000  0   -5672484.620    -842528.766   -4143078.964
10 0 59665  50220.00000  0   -6378007.771    -623830.631   -2997241.766
10 0 59665  50400.00000  0   -6846422.676    -367139.591   -1742125.372
10 0 59665  50580.00000  0   -7059728.980     -88194.819    -423430.860
10 0 59665  50760.00000  0   -7009617.391     196091.782     910723.948
10 0 59665  50940.00000  0   -6697830.012     468513.059    2211582.277
10 0 59665  51120.00000  0   -6136115.741     712460.912    3431562.523
10 0 59665  51300.00000  0   -5345772.687     912792.928    4526031.778
10 0 59665  51480.00000  0   -4356802.238    1056625.652    5454955.004
10 0 59665  51660.00000  0   -3206726.737    1134014.253    6184354.108
10 0 59665  51840.00000  0   -1939130.179    1138487.846    6687533.500
10 0 59665  52020.00000  0    -601979.112    1067418.145    6946034.481
10 0 59665  52200.00000  0     754203.451     922205.517    6950287.822
10 0 59665  52380.00000  0    2078242.122     708274.581    6699962.115
10 0 59665  52560.00000  0    3320237.324     434879.478    6204001.980
10 0 59665  52740.00000  0    4433459.899     114722.022    5480349.086
10 0 59665  52920.00000  0    5376146.848    -236606.932    4555340.977
10 0 59665  53100.00000  0    6113129.412    -601344.098    3462795.884
10 0 59665  53280.00000  0    6617226.725    -960397.974    2242798.806
10 0 59665  53460.00000  0    6870329.318   -1294283.051     940218.912
10 0 59665  53640.00000  0    6864110.859   -1584098.210    -396981.311
10 0 59665  53820.00000  0    6600328.905   -1812498.431   -1719578.880
10 0 59665  54000.00000  0    6090686.323   -1964602.679   -2978976.516
10 0 59665  54180.00000  0    5356267.342   -2028789.492   -4129047.219
10 0 59665  54360.00000  0    4426589.797   -1997338.410   -5127850.747
10 0 59665  54540.00000  0    3338333.788   -1866888.696   -5939154.403
10 0 59665  54720.00000  0    2133817.442   -1638697.750   -6533699.917
10 0 59665  54900.00000  0     859305.670   -1318690.669   -6890188.337
10 0 59665  55080.00000  0    -436781.986    -917305.580   -6995967.957
10 0 59665  55260.00000  0   -1705694.419    -449145.442   -6847419.545
10 0 59665  55440.00000  0   -2900147.803      67552.775   -6450045.666
10 0 59665  55620.00000  0   -3976047.579     611615.308   -5818265.919
10 0 59665  55800.00000  0   -4894089.613    1159773.363   -4974930.452
10 0 59665  55980.00000  0   -5621198.508    1687624.945   -3950551.846
10 0 59665  56160.00000  0   -6131750.125    2170687.859   -2782261.666
10 0 59665  56340.00000  0   -6408523.305    2585496.679   -1512511.181
10 0 59665  56520.00000  0   -6443336.197    2910696.396    -187552.704
10 0 59665  56700.00000  0   -6237326.762    3128079.099    1144250.648
10 0 59665  56880.00000  0   -5800850.674    3223507.940    2434217.627
10 0 59665  57060.00000  0   -5152998.237    3187679.347    3635162.004
10 0 59665  57240.00000  0   -4320757.551    3016681.691    4703147.558
10 0 59665  57420.00000  0   -3337866.335    2712321.236    5599108.061
10 0 59665  57600.00000  0   -2243416.219    2282205.300    6290270.377
10 0 59665  57780.00000  0   -1080270.576    1739578.064    6751335.050
10 0 59665  57960.00000  0     106631.097    1102914.694    6965373.330
10 0 59665  58140.00000  0    1272008.775     395292.254    6924427.310
10 0 59665  58320.00000  0    2371964.932    -356441.385    6629806.151
10 0 59665  58500.00000  0    3365640.955   -1122678.250    6092070.399
10 0 59665  58680.00000  0    4216756.525   -1872211.261    5330697.083
10 0 59665  58860.00000  0    4894975.824   -2573506.848    4373421.409
10 0 59665  59040.00000  0    5377046.735   -3196041.654    3255267.906
10 0 59665  59220.00000  0    5647664.542   -3711647.868    2017284.437
10 0 59665  59400.00000  0    5700004.879   -4095798.789     705017.230
10 0 59665  59580.00000  0    5535897.321   -4328769.003    -633211.034
10 0 59665  59760.00000  0    5165626.537   -4396602.826   -1948148.550
10 0 59665  59940.00000  0    4607367.334   -4291835.432   -3191499.955
10 0 59665  60120.00000  0    3886287.248   -4013929.435   -4317755.388
10 0 59665  60300.00000  0    3033372.688   -3569408.861   -5285879.469
10 0 59665  60480.00000  0    2084048.404   -2971691.871   -6060788.878
10 0 59665  60660.00000  0    1076669.937   -2240644.103   -6614568.872
10 0 59665  60840.00000  0      50958.126   -1401878.876   -6927410.230
10 0 59665  61020.00000  0    -953562.507    -485831.790   -6988242.361
10 0 59665  61200.00000  0   -1899060.249     473346.037   -6795063.305
10 0 59665  61380.00000  0   -2750787.945    1439042.352   -6354975.497
10 0 59665  61560.00000  0   -3478329.372    2373551.070   -5683932.342
10 0 59665  61740.00000  0   -4056672.033    3239516.124   -4806203.564
10 0 59665  61920.00000  0   -4467076.891    4001409.864   -3753555.537
10 0 59665  62100.00000  0   -4697704.073    4626988.619   -2564157.087
10 0 59665  62280.00000  0   -4743969.641    5088665.992   -1281240.537
10 0 59665  62460.00000  0   -4608616.210    5364740.409      48448.325
10 0 59665  62640.00000  0   -4301482.727    5440413.354    1376361.984
10 0 59665  62820.00000  0   -3838978.766    5308537.807    2653952.952
10 0 59665  63000.00000  0   -3243283.775    4970051.536    3834486.790
10 0 59665  63180.00000  0   -2541313.698    4434075.044    4874776.332
10 0 59665  63360.00000  0   -1763514.714    3717674.191    5736770.634
10 0 59665  63540.00000  0    -942541.988    2845296.808    6388938.911
10 0 59665  63720.00000  0    -111887.218    1847912.785    6807399.114
10 0 59665  63900.00000  0     695482.747     761900.051    6976765.097
10 0 59665  64080.00000  0    1448429.966    -372284.480    6890697.293
10 0 59665  64260.00000  0    2118845.827   -1511605.309    6552145.421
10 0 59665  64440.00000  0    2682709.146   -2612078.305    5973276.894
10 0 59665  64620.00000  0    3120968.569   -3630478.365    5175084.485
10 0 59665  64800.00000  0    3420214.677   -4526064.872    4186671.653
10 0 59665  64980.00000  0    3573115.454   -5262258.147    3044227.430
10 0 59665  65160.00000  0    3578591.491   -5808191.703    1789710.511
10 0 59665  65340.00000  0    3441716.808   -6140061.075     469285.785
10 0 59665  65520.00000  0    3173348.089   -6242194.034    -868423.514
10 0 59665  65700.00000  0    2789500.610   -6107787.090   -2174195.481
10 0 59665  65880.00000  0    2310497.429   -5739258.094   -3400092.712
10 0 59665  66060.00000  0    1759944.256   -5148202.441   -4501276.243
10 0 59665  66240.00000  0    1163586.617   -4354956.417   -5437662.600
10 0 59665  66420.00000  0     548121.362   -3387810.920   -6175356.105
10 0 59665  66600.00000  0     -59982.018   -2281926.385   -6687818.382
10 0 59665  66780.00000  0    -635598.898   -1078003.170   -6956747.206
10 0 59665  66960.00000  0   -1155960.393     179235.070   -6972656.478
10 0 59665  67140.00000  0   -1601526.659    1442690.549   -6735155.500
10 0 59665  67320.00000  0   -1956698.736    2664620.866   -6252933.338
10 0 59665  67500.00000  0   -2210350.217    3798404.550   -5543457.616
10 0 59665  67680.00000  0   -2356167.296    4800297.068   -4632388.368
10 0 59665  67860.00000  0   -2392786.464    5631120.457   -3552708.083
10 0 59665  68040.00000  0   -2323720.939    6257818.149   -2343580.382
10 0 59665  68220.00000  0   -2157076.142    6654811.175   -1048970.984
10 0 59665  68400.00000  0   -1905066.542    6805090.011     283934.862
10 0 59665  68580.00000  0   -1583352.965    6700985.807    1606460.026
10 0 59665  68760.00000  0   -1210227.150    6344564.741    2870251.104
10 0 59665  68940.00000  0    -805685.538    5747611.094    4029080.346
10 0 59665  69120.00000  0    -390446.725    4931220.864    5040556.734
10 0 59665  69300.00000  0      15042.524    3925017.678    5867686.625
10 0 59665  69480.00000  0     391564.140    2766035.430    6480210.565
10 0 59665  69660.00000  0     721999.690    1497324.994    6855687.223
10 0 59665  69840.00000  0     992082.679     166338.328    6980291.180
10 0 59665  70020.00000  0    1191003.065   -1176846.845    6849308.872
10 0 59665  70200.00000  0    1311842.178   -2481406.404    6467328.707
10 0 59665  70380.00000  0    1351822.555   -3697699.454    5848112.450
10 0 59665  70560.00000  0    1312361.624   -4779181.320    5014140.479
10 0 59665  70740.00000  0    1198929.492   -5684225.090    3995840.127
99
